{
  "satellites": {
    "25338": {
      "name": "NOAA 15",
      "frequency": "137.620 MHz",
      "tle_line1": "1 25338U 98030A   25361.97379089  .00000211  00000+0  10407-3 0  9998",
      "tle_line2": "2 25338  98.5210  22.1184 0011180 125.9589 234.2630 14.27077395436879",
      "fetched_at": "2025-12-28T11:55:42.177824+00:00"
    },
    "28654": {
      "name": "NOAA 18",
      "frequency": "137.9125 MHz",
      "tle_line1": "1 28654U 05018A   25362.19974773  .00000185  00000+0  12114-3 0  9999",
      "tle_line2": "2 28654  98.8278  79.2643 0013227 277.1203  82.8466 14.13688357 62151",
      "fetched_at": "2025-12-28T11:55:42.537960+00:00"
    },
    "33591": {
      "name": "NOAA 19",
      "frequency": "137.100 MHz",
      "tle_line1": "1 33591U 09005A   25362.16842815  .00000062  00000+0  56800-4 0  9998",
      "tle_line2": "2 33591  98.9747  67.7686 0014312 151.0514 209.1455 14.13439536870320",
      "fetched_at": "2025-12-28T11:55:42.877530+00:00"
    }
  },
  "updated_at": "2025-12-28T11:55:42.877686+00:00",
  "source": "Celestrak"
}